start=new Date('2023-04-11T00:00:00.000Z').valueOf();
sats=[{"TLE_LINE2":"2 50183  53.2175 348.4489 0001124 107.1836 252.9280 15.08852881 75923","MEAN_MOTION_DDOT":"0.0000000000000","TIME_SYSTEM":"UTC","CENTER_NAME":"EARTH","MEAN_ELEMENT_THEORY":"SGP4","APOAPSIS":"540.484","BSTAR":"0.00098025000000","PERIAPSIS":"538.928","MEAN_ANOMALY":"252.9280","EPOCH":"2023-04-10T01:19:54.904512","CLASSIFICATION_TYPE":"U","MEAN_MOTION":"15.08852881","ELEMENT_SET_NO":"999","OBJECT_ID":"2021-125AD","DECAY_DATE":null,"OBJECT_NAME":"STARLINK-3281","REV_AT_EPOCH":"7592","MEAN_MOTION_DOT":"0.00015353","ECCENTRICITY":"0.00011240","TLE_LINE1":"1 50183U 21125AD  23100.05549658  .00015353  00000-0  98025-3 0  9990","ARG_OF_PERICENTER":"107.1836","COUNTRY_CODE":"US","PERIOD":"95.437","INCLINATION":"53.2175","FILE":"3885195","RCS_SIZE":"LARGE","SEMIMAJOR_AXIS":"6917.841","OBJECT_TYPE":"PAYLOAD","SITE":"AFWTR","GP_ID":"229849038","REF_FRAME":"TEME","NORAD_CAT_ID":"50183","EPHEMERIS_TYPE":"0","RA_OF_ASC_NODE":"348.4489","LAUNCH_DATE":"2021-12-18"},{"FILE":"3885363","INCLINATION":"53.2162","PERIOD":"95.437","COUNTRY_CODE":"US","ARG_OF_PERICENTER":"101.9115","ECCENTRICITY":"0.00008500","TLE_LINE1":"1 50185U 21125AF  23100.92397275  .00002968  00000-0  20448-3 0  9996","LAUNCH_DATE":"2021-12-18","RA_OF_ASC_NODE":"344.5492","EPHEMERIS_TYPE":"0","NORAD_CAT_ID":"50185","REF_FRAME":"TEME","GP_ID":"229879239","SITE":"AFWTR","OBJECT_TYPE":"PAYLOAD","RCS_SIZE":"LARGE","SEMIMAJOR_AXIS":"6917.867","MEAN_ANOMALY":"258.1972","PERIAPSIS":"539.144","BSTAR":"0.00020448000000","APOAPSIS":"540.320","MEAN_ELEMENT_THEORY":"SGP4","TIME_SYSTEM":"UTC","MEAN_MOTION_DDOT":"0.0000000000000","CENTER_NAME":"EARTH","TLE_LINE2":"2 50185  53.2162 344.5492 0000850 101.9115 258.1972 15.08844237 76012","MEAN_MOTION_DOT":"0.00002968","REV_AT_EPOCH":"7601","OBJECT_NAME":"STARLINK-3279","OBJECT_ID":"2021-125AF","DECAY_DATE":null,"ELEMENT_SET_NO":"999","MEAN_MOTION":"15.08844237","EPOCH":"2023-04-10T22:10:31.245600","CLASSIFICATION_TYPE":"U"},{"PERIOD":"95.438","INCLINATION":"53.2172","ARG_OF_PERICENTER":"93.2040","TLE_LINE1":"1 50186U 21125AG  23100.73905703  .00002172  00000-0  15450-3 0  9991","ECCENTRICITY":"0.00012170","COUNTRY_CODE":"US","FILE":"3885363","REF_FRAME":"TEME","NORAD_CAT_ID":"50186","OBJECT_TYPE":"PAYLOAD","SITE":"AFWTR","SEMIMAJOR_AXIS":"6917.879","RCS_SIZE":"LARGE","GP_ID":"229879750","LAUNCH_DATE":"2021-12-18","RA_OF_ASC_NODE":"355.3805","EPHEMERIS_TYPE":"0","MEAN_MOTION_DDOT":"0.0000000000000","TIME_SYSTEM":"UTC","CENTER_NAME":"EARTH","TLE_LINE2":"2 50186  53.2172 355.3805 0001217  93.2040 266.9091 15.08840568 75831","BSTAR":"0.00015450000000","APOAPSIS":"540.586","PERIAPSIS":"538.902","MEAN_ANOMALY":"266.9091","MEAN_ELEMENT_THEORY":"SGP4","ELEMENT_SET_NO":"999","MEAN_MOTION":"15.08840568","CLASSIFICATION_TYPE":"U","EPOCH":"2023-04-10T17:44:14.527392","MEAN_MOTION_DOT":"0.00002172","DECAY_DATE":null,"OBJECT_ID":"2021-125AG","REV_AT_EPOCH":"7583","OBJECT_NAME":"STARLINK-3274"},{"EPHEMERIS_TYPE":"0","RA_OF_ASC_NODE":"334.6644","LAUNCH_DATE":"2021-12-18","RCS_SIZE":"LARGE","SEMIMAJOR_AXIS":"6917.842","OBJECT_TYPE":"PAYLOAD","SITE":"AFWTR","GP_ID":"229878245","NORAD_CAT_ID":"50187","REF_FRAME":"TEME","FILE":"3885363","ECCENTRICITY":"0.00011620","TLE_LINE1":"1 50187U 21125AH  23100.89913534  .00005577  00000-0  36810-3 0  9995","ARG_OF_PERICENTER":"80.4120","COUNTRY_CODE":"US","PERIOD":"95.437","INCLINATION":"53.2160","DECAY_DATE":null,"OBJECT_ID":"2021-125AH","OBJECT_NAME":"STARLINK-3272","REV_AT_EPOCH":"7612","MEAN_MOTION_DOT":"0.00005577","CLASSIFICATION_TYPE":"U","EPOCH":"2023-04-10T21:34:45.293376","MEAN_MOTION":"15.08852627","ELEMENT_SET_NO":"999","MEAN_ELEMENT_THEORY":"SGP4","APOAPSIS":"540.511","BSTAR":"0.00036810000000","MEAN_ANOMALY":"279.7004","PERIAPSIS":"538.903","TLE_LINE2":"2 50187  53.2160 334.6644 0001162  80.4120 279.7004 15.08852627 76124","MEAN_MOTION_DDOT":"0.0000000000000","TIME_SYSTEM":"UTC","CENTER_NAME":"EARTH"},{"MEAN_ELEMENT_THEORY":"SGP4","APOAPSIS":"510.646","BSTAR":"0.00252140000000","PERIAPSIS":"508.932","MEAN_ANOMALY":"238.1516","TLE_LINE2":"2 50188  53.2202 331.3024 0001244 121.9601 238.1516 15.18693945 76230","CENTER_NAME":"EARTH","MEAN_MOTION_DDOT":"0.0000000000000","TIME_SYSTEM":"UTC","DECAY_DATE":null,"OBJECT_ID":"2021-125AJ","OBJECT_NAME":"STARLINK-3275","REV_AT_EPOCH":"7623","MEAN_MOTION_DOT":"0.00053010","EPOCH":"2023-04-10T22:09:50.174496","CLASSIFICATION_TYPE":"U","MEAN_MOTION":"15.18693945","ELEMENT_SET_NO":"999","FILE":"3885363","TLE_LINE1":"1 50188U 21125AJ  23100.92349739  .00053010  00000-0  25214-2 0  9990","ECCENTRICITY":"0.00012440","ARG_OF_PERICENTER":"121.9601","COUNTRY_CODE":"US","PERIOD":"94.818","INCLINATION":"53.2202","EPHEMERIS_TYPE":"0","RA_OF_ASC_NODE":"331.3024","LAUNCH_DATE":"2021-12-18","SEMIMAJOR_AXIS":"6887.924","RCS_SIZE":"LARGE","OBJECT_TYPE":"PAYLOAD","SITE":"AFWTR","GP_ID":"229880752","NORAD_CAT_ID":"50188","REF_FRAME":"TEME"},{"ARG_OF_PERICENTER":"35.1209","TLE_LINE1":"1 50189U 21125AK  23100.70781276  .00004115  00000-0  27645-3 0  9996","ECCENTRICITY":"0.00014470","COUNTRY_CODE":"US","PERIOD":"95.437","INCLINATION":"53.2170","FILE":"3885363","OBJECT_TYPE":"PAYLOAD","SITE":"AFWTR","SEMIMAJOR_AXIS":"6917.862","RCS_SIZE":"LARGE","GP_ID":"229879739","REF_FRAME":"TEME","NORAD_CAT_ID":"50189","RA_OF_ASC_NODE":"345.5294","EPHEMERIS_TYPE":"0","LAUNCH_DATE":"2021-12-18","TLE_LINE2":"2 50189  53.2170 345.5294 0001447  35.1209 324.9878 15.08846104 76013","MEAN_MOTION_DDOT":"0.0000000000000","TIME_SYSTEM":"UTC","CENTER_NAME":"EARTH","MEAN_ELEMENT_THEORY":"SGP4","BSTAR":"0.00027645000000","APOAPSIS":"540.728","PERIAPSIS":"538.726","MEAN_ANOMALY":"324.9878","EPOCH":"2023-04-10T16:59:15.022464","CLASSIFICATION_TYPE":"U","ELEMENT_SET_NO":"999","MEAN_MOTION":"15.08846104","OBJECT_ID":"2021-125AK","DECAY_DATE":null,"REV_AT_EPOCH":"7601","OBJECT_NAME":"STARLINK-3276","MEAN_MOTION_DOT":"0.00004115"},{"MEAN_MOTION_DDOT":"0.0000000000000","TIME_SYSTEM":"UTC","CENTER_NAME":"EARTH","TLE_LINE2":"2 50190  53.2168 338.2789 0001052 105.4157 254.6951 15.08851354 76019","APOAPSIS":"540.438","BSTAR":"0.00089250000000","MEAN_ANOMALY":"254.6951","PERIAPSIS":"538.983","MEAN_ELEMENT_THEORY":"SGP4","MEAN_MOTION":"15.08851354","ELEMENT_SET_NO":"999","CLASSIFICATION_TYPE":"U","EPOCH":"2023-04-10T02:14:13.882272","MEAN_MOTION_DOT":"0.00013949","DECAY_DATE":null,"OBJECT_ID":"2021-125AL","OBJECT_NAME":"STARLINK-3268","REV_AT_EPOCH":"7601","PERIOD":"95.437","INCLINATION":"53.2168","ECCENTRICITY":"0.00010520","TLE_LINE1":"1 50190U 21125AL  23100.09321623  .00013949  00000-0  89250-3 0  9991","ARG_OF_PERICENTER":"105.4157","COUNTRY_CODE":"US","FILE":"3885195","REF_FRAME":"TEME","NORAD_CAT_ID":"50190","RCS_SIZE":"LARGE","SEMIMAJOR_AXIS":"6917.846","SITE":"AFWTR","OBJECT_TYPE":"PAYLOAD","GP_ID":"229850537","LAUNCH_DATE":"2021-12-18","RA_OF_ASC_NODE":"338.2789","EPHEMERIS_TYPE":"0"},{"REF_FRAME":"TEME","NORAD_CAT_ID":"50191","OBJECT_TYPE":"PAYLOAD","SITE":"AFWTR","SEMIMAJOR_AXIS":"6917.848","RCS_SIZE":"LARGE","GP_ID":"229878745","LAUNCH_DATE":"2021-12-18","EPHEMERIS_TYPE":"0","RA_OF_ASC_NODE":"355.5652","PERIOD":"95.437","INCLINATION":"53.2156","ARG_OF_PERICENTER":"86.2516","TLE_LINE1":"1 50191U 21125AM  23100.69858237  .00006605  00000-0  43254-3 0  9999","ECCENTRICITY":"0.00014570","COUNTRY_CODE":"US","FILE":"3885363","ELEMENT_SET_NO":"999","MEAN_MOTION":"15.08850451","CLASSIFICATION_TYPE":"U","EPOCH":"2023-04-10T16:45:57.516768","MEAN_MOTION_DOT":"0.00006605","OBJECT_ID":"2021-125AM","DECAY_DATE":null,"REV_AT_EPOCH":"7582","OBJECT_NAME":"STARLINK-3273","TIME_SYSTEM":"UTC","MEAN_MOTION_DDOT":"0.0000000000000","CENTER_NAME":"EARTH","TLE_LINE2":"2 50191  53.2156 355.5652 0001457  86.2516 273.8643 15.08850451 75828","BSTAR":"0.00043254000000","APOAPSIS":"540.721","MEAN_ANOMALY":"273.8643","PERIAPSIS":"538.706","MEAN_ELEMENT_THEORY":"SGP4"},{"FILE":"3885195","ARG_OF_PERICENTER":"79.2600","TLE_LINE1":"1 50192U 21125AN  23100.02329786  .00001054  00000-0  84282-4 0  9999","ECCENTRICITY":"0.00010720","COUNTRY_CODE":"US","PERIOD":"95.438","INCLINATION":"53.2174","EPHEMERIS_TYPE":"0","RA_OF_ASC_NODE":"338.5924","LAUNCH_DATE":"2021-12-18","SITE":"AFWTR","OBJECT_TYPE":"PAYLOAD","SEMIMAJOR_AXIS":"6917.882","RCS_SIZE":"LARGE","GP_ID":"229849039","REF_FRAME":"TEME","NORAD_CAT_ID":"50192","MEAN_ELEMENT_THEORY":"SGP4","BSTAR":"0.00008428200000","APOAPSIS":"540.488","PERIAPSIS":"539.005","MEAN_ANOMALY":"280.8513","TLE_LINE2":"2 50192  53.2174 338.5924 0001072  79.2600 280.8513 15.08839584 76000","TIME_SYSTEM":"UTC","MEAN_MOTION_DDOT":"0.0000000000000","CENTER_NAME":"EARTH","OBJECT_ID":"2021-125AN","DECAY_DATE":null,"REV_AT_EPOCH":"7600","OBJECT_NAME":"STARLINK-3259","MEAN_MOTION_DOT":"0.00001054","EPOCH":"2023-04-10T00:33:32.935104","CLASSIFICATION_TYPE":"U","ELEMENT_SET_NO":"999","MEAN_MOTION":"15.08839584"},{"EPOCH":"2023-04-10T02:24:49.572000","CLASSIFICATION_TYPE":"U","ELEMENT_SET_NO":"999","MEAN_MOTION":"15.08854382","REV_AT_EPOCH":"7606","OBJECT_NAME":"STARLINK-3261","OBJECT_ID":"2021-125AP","DECAY_DATE":null,"MEAN_MOTION_DOT":"0.00007400","TLE_LINE2":"2 50193  53.2168 338.2465 0001198 101.9726 258.1400 15.08854382 76064","MEAN_MOTION_DDOT":"0.0000000000000","TIME_SYSTEM":"UTC","CENTER_NAME":"EARTH","MEAN_ELEMENT_THEORY":"SGP4","PERIAPSIS":"538.873","MEAN_ANOMALY":"258.1400","BSTAR":"0.00048237000000","APOAPSIS":"540.530","GP_ID":"229850290","SITE":"AFWTR","OBJECT_TYPE":"PAYLOAD","RCS_SIZE":"LARGE","SEMIMAJOR_AXIS":"6917.836","REF_FRAME":"TEME","NORAD_CAT_ID":"50193","EPHEMERIS_TYPE":"0","RA_OF_ASC_NODE":"338.2465","LAUNCH_DATE":"2021-12-18","COUNTRY_CODE":"US","ARG_OF_PERICENTER":"101.9726","ECCENTRICITY":"0.00011980","TLE_LINE1":"1 50193U 21125AP  23100.10057375  .00007400  00000-0  48237-3 0  9991","INCLINATION":"53.2168","PERIOD":"95.437","FILE":"3885195"}];
